OBJECT_NAME,OBJECT_ID,EPOCH,MEAN_MOTION,ECCENTRICITY,INCLINATION,RA_OF_ASC_NODE,ARG_OF_PERICENTER,MEAN_ANOMALY,EPHEMERIS_TYPE,CLASSIFICATION_TYPE,NORAD_CAT_ID,ELEMENT_SET_NO,REV_AT_EPOCH,BSTAR,MEAN_MOTION_DOT,MEAN_MOTION_DDOT
NUSANTARA TIGA (SATRIA),2023-086A,2026-07-20T03:33:29.798784,1.00273223,.000273,0.0344,15.6812,323.2275,158.3917,0,U,57045,999,1009,0,-.237E-5,0
H2SAT (HEINRICH HERTZ),2023-093A,2026-07-20T06:17:18.744000,1.00272753,.00005793,0.0236,107.9947,231.6025,53.4683,0,U,57213,999,1124,0,0,0
SYRACUSE 4B,2023-093B,2026-07-20T06:15:18.935712,1.00271263,.00000812,0.0231,61.9289,79.5793,243.9042,0,U,57214,999,729,0,0,0
JUPITER 3 (ECHOSTAR 24),2023-108A,2026-07-19T10:31:50.066688,1.00269581,.00010557,0.0152,46.7510,65.3250,247.9176,0,U,57479,999,1096,0,-.154E-5,0
GALAXY 37 (G-37),2023-112A,2026-07-20T05:40:52.238208,1.00272377,.00020602,0.0196,56.0364,60.3633,139.8229,0,U,57493,999,1087,0,.46E-6,0
LUDI TANCE-4 01A,2023-120A,2026-07-19T22:20:39.429024,1.00275287,.00016523,15.0837,193.1551,11.3795,157.9203,0,U,57624,999,1087,0,-.178E-5,0
TJS-10,2023-169A,2026-07-18T19:51:04.082976,1.00273021,.0004093,2.6241,80.1128,113.4926,133.1890,0,U,58204,999,985,0,-.257E-5,0
ZHONGXING-6E,2023-172A,2026-07-19T08:35:13.557120,1.00269836,.00029267,0.0313,91.9638,19.0453,70.4510,0,U,58253,999,998,0,-.366E-5,0
YAOGAN-41,2023-197A,2026-07-20T06:52:15.392928,1.00275082,.00140149,3.0691,313.6718,200.3890,10.2124,0,U,58582,999,965,0,-.362E-5,0
OVZON-3,2024-003A,2026-07-20T04:51:29.645280,1.00273391,.00000892,0.0181,138.1873,295.5159,356.8310,0,U,58698,999,777,0,.49E-6,0
INSAT-3DS,2024-033A,2026-07-20T03:14:38.535072,1.00270799,.0001271,0.0776,263.9349,220.5597,304.1325,0,U,58990,999,4739,0,-.158E-5,0
MERAH PUTIH 2,2024-035A,2026-07-20T06:49:23.168352,1.00269526,.00012968,0.0196,65.8980,47.2117,40.2581,0,U,58995,999,892,0,0,0
TJS-11,2024-037A,2026-07-19T16:37:51.470112,1.00272166,.0001984,4.1569,327.4956,154.9321,177.0954,0,U,59020,999,890,0,-.366E-5,0
HULIANWAN GAOGUI-01 (HG-01),2024-040A,2026-07-20T06:26:40.346592,1.00272670,.00018443,0.0761,330.9413,77.3946,20.0181,0,U,59069,999,766,0,.154E-5,0
EUTELSAT 36D,2024-059A,2026-07-20T06:27:25.274592,1.00266989,.00002091,0.0189,58.9452,342.5409,29.2888,0,U,59346,999,847,0,0,0
PAKSAT-MM1,2024-104A,2026-07-20T06:28:02.715168,1.00274579,.0002221,0.0302,165.5050,294.9391,332.8081,0,U,59915,999,785,0,.152E-5,0
ASTRA 1P (SES-24),2024-115A,2026-07-20T02:31:38.842752,1.00262573,.00013804,0.0650,326.9723,261.5818,126.4338,0,U,60086,999,752,0,.116E-5,0
GOES 19,2024-119A,2026-07-20T05:55:43.314240,1.00272617,.00002929,0.0194,138.5551,50.8951,122.3056,0,U,60133,999,729,0,-.25E-5,0
ZHONGXING-3A,2024-122A,2026-07-18T22:03:44.103744,1.00273255,.0001833,0.0292,137.1691,19.8104,212.2555,0,U,60179,999,762,0,-.32E-5,0
TURKSAT 6A,2024-127A,2026-07-20T04:46:30.124128,1.00273369,.00031048,0.0384,218.6179,308.1581,244.7874,0,U,60233,999,734,0,.144E-5,0
HULIANWAN GAOGUI-02 (HG-02),2024-135A,2026-07-19T03:38:12.433056,1.00271644,.00061695,0.0477,354.3317,15.7361,134.4616,0,U,60327,999,782,0,-.179E-5,0
ZHONGXING-4A,2024-151A,2026-07-20T06:50:53.025216,1.00273141,.00000651,1.2301,270.4321,25.4284,223.1393,0,U,60606,999,708,0,-.364E-5,0
HULIANWAN GAOGUI-03 (HG-03),2024-181A,2026-07-20T05:59:37.759776,1.00267736,.00012782,0.0529,355.1305,95.3488,220.3031,0,U,61503,999,715,0,-.243E-5,0
DSN-3 (KIRAMEKI-3),2024-198A,2026-07-20T06:58:14.817792,1.00271259,.00010821,0.0339,242.9703,256.3745,47.3457,0,U,61733,999,625,0,-.252E-5,0
KOREASAT 6A,2024-206A,2026-07-20T06:50:15.584640,1.00273042,.00010314,0.0259,102.5366,338.6767,75.4237,0,U,61910,999,617,0,-.364E-5,0
OPTUS-X (ADS-01),2024-212A,2026-07-20T05:19:04.499904,1.00271938,.00023571,0.0175,49.9317,87.6176,36.6180,0,U,62006,999,609,0,-.145E-5,0
GSAT-N2 (GSAT-20),2024-214A,2026-07-20T04:53:51.918432,1.00272416,.00027104,0.0607,260.2310,150.3332,28.8130,0,U,62028,999,622,0,-.21E-6,0
SXM-9,2024-234A,2026-07-20T05:52:51.088800,1.00271482,.00047937,0.0232,321.1595,0.3283,339.5786,0,U,62259,999,590,0,-.207E-5,0
TJS-12,2024-246A,2026-07-20T05:16:12.275328,1.00268271,.00019217,0.6006,302.7178,102.5779,118.2199,0,U,62374,999,589,0,-.234E-5,0
NUVIEW ALPHA,2024-252B,2026-07-20T05:53:28.529376,1.00271956,.00012654,0.0397,19.2712,73.0144,211.0081,0,U,62455,999,415,0,-.217E-5,0
AGILA,2024-252C,2026-07-20T03:03:38.622240,1.00271690,.00014472,0.0375,150.0252,330.7329,15.2222,0,U,62456,999,549,0,-.184E-5,0
NUVIEW BRAVO,2024-252D,2026-07-20T05:53:28.529376,1.00272387,.00017677,0.0675,168.0997,337.1854,157.9963,0,U,62457,999,412,0,-.217E-5,0
THURAYA-4,2025-001A,2026-07-20T06:29:47.547744,1.00272956,.00000667,0.0210,76.4227,336.9078,26.4752,0,U,62483,999,450,0,.137E-5,0
SHIJIAN-25 (SJ-25),2025-002A,2026-07-18T19:46:25.225248,1.00279843,.0050886,5.1867,60.9651,176.5823,122.7745,0,U,62485,999,567,0,-.358E-5,0
TJS-14,2025-017A,2026-07-20T06:22:25.754304,1.00269777,.00018889,0.7094,298.1684,304.7425,169.1032,0,U,62804,999,560,0,.113E-5,0
SPAINSAT NG I,2025-021A,2026-07-20T06:25:25.466304,1.00270378,.00001533,0.0192,42.0642,19.6783,1.6379,0,U,62852,999,431,0,.149E-5,0
QZS-6 (MICHIBIKI-6),2025-023A,2026-07-20T03:17:38.819904,1.00274422,.00019517,0.0131,43.6032,71.0329,323.1628,0,U,62876,999,527,0,-.236E-5,0
ZHONGXING-10R,2025-036A,2026-07-20T06:48:38.240352,1.00270148,.0004387,0.0242,159.6502,346.3987,4.6766,0,U,63075,999,529,0,-.354E-5,0
TJS-15,2025-045A,2026-07-18T19:29:25.725120,1.00272854,.0003083,0.3094,85.6905,294.8019,302.8663,0,U,63157,999,507,0,-.272E-5,0
TIANLIAN 2-04,2025-062A,2026-07-20T01:32:07.975680,1.00272717,.00313791,4.2915,273.9652,9.2837,117.6568,0,U,63361,999,493,0,-.135E-5,0
TJS-16,2025-064A,2026-07-18T17:24:34.307712,1.00271244,.0002454,1.1777,81.2665,294.7569,342.2525,0,U,63397,999,470,0,-.112E-5,0
TJS-17,2025-073A,2026-07-18T19:48:12.890016,1.00271316,.0001008,1.1440,82.4266,314.2292,1.5118,0,U,63524,999,460,0,-.77E-6,0
TIANLIAN 2-05,2025-084A,2026-07-20T06:22:55.705728,1.00273599,.00027622,4.3685,279.4570,158.3587,336.3278,0,U,63662,999,471,0,.125E-5,0
TJS-19,2025-097A,2026-07-18T19:42:30.026304,1.00274857,.000411,3.2341,317.9697,251.3720,164.1101,0,U,63924,999,446,0,-.281E-5,0
CHINASAT 3B,2025-106A,2026-07-19T03:42:27.026208,1.00272149,.00041395,0.0330,186.5072,319.2493,14.1137,0,U,64062,999,438,0,-.5E-6,0
SXM-10,2025-122A,2026-07-20T05:43:59.439360,1.00263716,.00013869,0.0161,42.6733,327.2122,257.9495,0,U,64290,999,401,0,-.18E-6,0
COSMOS 2589,2025-131A,2026-07-18T19:39:31.426272,1.00268636,.0001222,0.0238,120.2702,64.5231,144.7079,0,U,64467,999,387,0,-.297E-5,0
CHINASAT 9C,2025-132A,2026-07-20T03:18:08.772192,1.00273234,.00035045,0.0133,99.6995,15.8364,324.1113,0,U,64470,999,447,0,-.25E-5,0
MTG-S1,2025-143A,2026-07-20T06:17:03.768288,1.00275140,.00032544,0.5817,346.3046,258.0455,147.5965,0,U,64723,999,375,0,-.9E-7,0
DROR 1,2025-148A,2026-07-20T06:15:56.376288,1.00270465,.0001904,0.0316,269.8492,136.9549,341.2168,0,U,64784,999,362,0,-.37E-6,0
SHIYAN-29,2025-196A,2026-07-17T23:08:38.701248,1.00275892,.00131541,28.8546,18.1469,177.5801,182.5349,0,U,65486,999,318,0,-.287E-5,0
NUSANTARA LIMA (NUSANTARA 5),2025-205A,2026-07-20T06:49:15.680064,1.00271404,.00003146,0.0044,180.1771,354.5445,338.5025,0,U,65588,999,305,0,-.359E-5,0
TJS-20,2025-238A,2026-07-20T00:05:49.196832,1.00268453,.00038396,5.3965,299.4256,187.8779,234.3719,0,U,66142,999,266,0,.25E-6,0
CMS-03 (GSAT-7R),2025-249B,2026-07-20T04:55:29.261856,1.00270130,.00025105,0.0175,59.8789,58.0137,327.9586,0,U,66311,999,267,0,0,0
VIASAT-3 F2,2025-261A,2026-07-20T05:54:35.922240,1.00271429,.00006908,0.0018,217.8860,359.4114,90.4074,0,U,66454,999,312,0,-.236E-5,0
SHIJIAN-28 (SJ-28),2025-277A,2026-07-20T03:30:38.666304,1.00274627,.00011657,4.4542,271.6074,56.4699,139.3316,0,U,66549,999,248,0,-.36E-5,0
TJS-22,2025-290A,2026-07-12T19:22:52.255200,1.00269739,.0002691,1.4677,286.9097,318.9700,42.0235,0,U,66990,999,228,0,-.5E-7,0
TJS-23,2025-306A,2026-07-19T12:18:29.759616,1.00268343,.0004406,5.5160,297.3167,199.9656,160.1885,0,U,67226,999,221,0,.15E-6,0
FENGYUN 4C,2025-312A,2026-07-13T15:48:28.031328,1.00269440,.00006584,0.0385,175.3203,48.7481,77.5697,0,U,67246,999,204,0,-.328E-5,0
SHIJIAN-29A (SJ-29A),2025-315A,2026-07-20T03:12:39.297888,1.00273238,.00050131,3.4798,94.3182,50.4189,274.5180,0,U,67302,999,194,0,-.72E-6,0
SHIJIAN-29B (SJ-29B),2025-315C,2026-07-20T03:12:46.786176,1.00272429,.00052541,3.4787,94.3101,55.4477,269.5810,0,U,67403,999,201,0,-.72E-6,0
ELEKTRO-L 5,2026-028A,2026-07-19T23:04:38.101440,1.00271815,.00020784,0.2016,327.4976,176.1649,216.3355,0,U,67756,999,157,0,-.101E-5,0
JAM-E JAM 1,2026-028B,2026-07-20T04:44:07.850976,1.00266894,.00007056,0.1974,315.4598,256.8704,190.6627,0,U,67757,999,145,0,.154E-5,0
ECHOSTAR 25,2026-045A,2026-07-20T05:45:44.271072,1.00276665,.00017589,0.0202,54.8042,45.6179,174.0198,0,U,68126,999,132,0,-.59E-6,0
TJS-24,2026-116A,2026-07-20T06:49:42.643776,1.00273635,.00003055,0.0899,94.1561,141.9764,254.6530,0,U,69235,999,56,0,-.234E-5,0
